{"type": "FeatureCollection", "features": [ {"type": "Feature", "properties": {"norad_id": 65077, "name": "CREW DRAGON 11", "group": "stations", "lat": 49.886546976836655, "lon": -108.1641207952154, "alt_km": 413.31043278690504, "timestamp": "2025-12-04T19:33:58.467852+00:00", "meta": {"OBJECT_NAME": "CREW DRAGON 11", "OBJECT_ID": "2025-166A", "EPOCH": "2025-12-04T02:12:18.455328", "MEAN_MOTION": 15.49293095, "ECCENTRICITY": 0.00036281, "INCLINATION": 51.6302, "RA_OF_ASC_NODE": 185.2932, "ARG_OF_PERICENTER": 200.9086, "MEAN_ANOMALY": 159.1754, "EPHEMERIS_TYPE": 0, "CLASSIFICATION_TYPE": "U", "NORAD_CAT_ID": 65077, "ELEMENT_SET_NO": 999, "REV_AT_EPOCH": 214, "BSTAR": 0.00029177423, "MEAN_MOTION_DOT": 0.00015824, "MEAN_MOTION_DDOT": 0}, "tle": {"line1": "1 65077U 25166A   25338.09188027  .00015824  00000+0  29177-3 0  9999", "line2": "2 65077  51.6302 185.2932 0003628 200.9086 159.1754 15.49293095  2144"}}, "geometry": {"type": "Point", "coordinates": [-108.1641207952154, 49.886546976836655]}}, {"type": "Feature", "properties": {"norad_id": 65304, "name": "DRAGON CRS-33", "group": "stations", "lat": 49.88654713193029, "lon": -108.16411992504334, "alt_km": 413.3104327450719, "timestamp": "2025-12-04T19:33:58.467861+00:00", "meta": {"OBJECT_NAME": "DRAGON CRS-33", "OBJECT_ID": "2025-186A", "EPOCH": "2025-12-04T02:12:18.455328", "MEAN_MOTION": 15.49293095, "ECCENTRICITY": 0.00036281, "INCLINATION": 51.6302, "RA_OF_ASC_NODE": 185.2932, "ARG_OF_PERICENTER": 200.9086, "MEAN_ANOMALY": 159.1754, "EPHEMERIS_TYPE": 0, "CLASSIFICATION_TYPE": "U", "NORAD_CAT_ID": 65304, "ELEMENT_SET_NO": 999, "REV_AT_EPOCH": 11, "BSTAR": 0.00029177423, "MEAN_MOTION_DOT": 0.00015824, "MEAN_MOTION_DDOT": 0}, "tle": {"line1": "1 65304U 25186A   25338.09188027  .00015824  00000+0  29177-3 0  9994", "line2": "2 65304  51.6302 185.2932 0003628 200.9086 159.1754 15.49293095   112"}}, "geometry": {"type": "Point", "coordinates": [-108.16411992504334, 49.88654713193029]}}, {"type": "Feature", "properties": {"norad_id": 65586, "name": "PROGRESS-MS 32", "group": "stations", "lat": 49.886547287023504, "lon": -108.16411905487371, "alt_km": 413.310432703237, "timestamp": "2025-12-04T19:33:58.467870+00:00", "meta": {"OBJECT_NAME": "PROGRESS-MS 32", "OBJECT_ID": "2025-204A", "EPOCH": "2025-12-04T02:12:18.455328", "MEAN_MOTION": 15.49293095, "ECCENTRICITY": 0.00036281, "INCLINATION": 51.6302, "RA_OF_ASC_NODE": 185.2932, "ARG_OF_PERICENTER": 200.9086, "MEAN_ANOMALY": 159.1754, "EPHEMERIS_TYPE": 0, "CLASSIFICATION_TYPE": "U", "NORAD_CAT_ID": 65586, "ELEMENT_SET_NO": 999, "REV_AT_EPOCH": 27, "BSTAR": 0.00029177423, "MEAN_MOTION_DOT": 0.00015824, "MEAN_MOTION_DDOT": 0}, "tle": {"line1": "1 65586U 25204A   25338.09188027  .00015824  00000+0  29177-3 0  9997", "line2": "2 65586  51.6302 185.2932 0003628 200.9086 159.1754 15.49293095   271"}}, "geometry": {"type": "Point", "coordinates": [-108.16411905487371, 49.886547287023504]}}, {"type": "Feature", "properties": {"norad_id": 65616, "name": "CYGNUS NG-23", "group": "stations", "lat": 49.886547442117354, "lon": -108.16411818470043, "alt_km": 413.3104326614048, "timestamp": "2025-12-04T19:33:58.467879+00:00", "meta": {"OBJECT_NAME": "CYGNUS NG-23", "OBJECT_ID": "2025-208A", "EPOCH": "2025-12-04T02:12:18.455328", "MEAN_MOTION": 15.49293095, "ECCENTRICITY": 0.00036281, "INCLINATION": 51.6302, "RA_OF_ASC_NODE": 185.2932, "ARG_OF_PERICENTER": 200.9086, "MEAN_ANOMALY": 159.1754, "EPHEMERIS_TYPE": 0, "CLASSIFICATION_TYPE": "U", "NORAD_CAT_ID": 65616, "ELEMENT_SET_NO": 999, "REV_AT_EPOCH": 22, "BSTAR": 0.00029177423, "MEAN_MOTION_DOT": 0.00015824, "MEAN_MOTION_DDOT": 0}, "tle": {"line1": "1 65616U 25208A   25338.09188027  .00015824  00000+0  29177-3 0  9995", "line2": "2 65616  51.6302 185.2932 0003628 200.9086 159.1754 15.49293095   220"}}, "geometry": {"type": "Point", "coordinates": [-108.16411818470043, 49.886547442117354]}}, {"type": "Feature", "properties": {"norad_id": 65729, "name": "DRAGONFLY", "group": "stations", "lat": 0.5996462151364065, "lon": -4.230613940486748, "alt_km": 359.97012647137126, "timestamp": "2025-12-04T19:33:58.467889+00:00", "meta": {"OBJECT_NAME": "DRAGONFLY", "OBJECT_ID": "1998-067XH", "EPOCH": "2025-12-04T01:59:13.244352", "MEAN_MOTION": 15.68505337, "ECCENTRICITY": 0.00065465, "INCLINATION": 51.6245, "RA_OF_ASC_NODE": 179.979, "ARG_OF_PERICENTER": 222.4541, "MEAN_ANOMALY": 137.595, "EPHEMERIS_TYPE": 0, "CLASSIFICATION_TYPE": "U", "NORAD_CAT_ID": 65729, "ELEMENT_SET_NO": 999, "REV_AT_EPOCH": 1180, "BSTAR": 0.001745531, "MEAN_MOTION_DOT": 0.00206221, "MEAN_MOTION_DDOT": 0}, "tle": {"line1": "1 65729U 98067XH  25338.08279218  .00206221  00000+0  17455-2 0  9993", "line2": "2 65729  51.6245 179.9790 0006546 222.4541 137.5950 15.68505337 11800"}}, "geometry": {"type": "Point", "coordinates": [-4.230613940486748, 0.5996462151364065]}}, {"type": "Feature", "properties": {"norad_id": 65730, "name": "1998-067XJ", "group": "stations", "lat": -31.84497005111627, "lon": 18.761400205157585, "alt_km": 144.45262068122884, "timestamp": "2025-12-04T19:33:58.467899+00:00", "meta": {"OBJECT_NAME": "1998-067XJ", "OBJECT_ID": "1998-067XJ", "EPOCH": "2025-12-02T19:46:01.269984", "MEAN_MOTION": 16.23931094, "ECCENTRICITY": 0.00101147, "INCLINATION": 51.6061, "RA_OF_ASC_NODE": 180.4655, "ARG_OF_PERICENTER": 256.3912, "MEAN_ANOMALY": 103.5981, "EPHEMERIS_TYPE": 0, "CLASSIFICATION_TYPE": "U", "NORAD_CAT_ID": 65730, "ELEMENT_SET_NO": 999, "REV_AT_EPOCH": 1168, "BSTAR": 0.002285911, "MEAN_MOTION_DOT": 0.06330363, "MEAN_MOTION_DDOT": 1.1931217e-05}, "tle": {"line1": "1 65730U 98067XJ  25336.82362581  .06330363  11931-4  22859-2 0  9996", "line2": "2 65730  51.6061 180.4655 0010114 256.3912 103.5981 16.23931094 11687"}}, "geometry": {"type": "Point", "coordinates": [18.761400205157585, -31.84497005111627]}}, {"type": "Feature", "properties": {"norad_id": 65731, "name": "1998-067XK", "group": "stations", "lat": 1.0022057052275082, "lon": 178.17092523646906, "alt_km": 381.0057738979913, "timestamp": "2025-12-04T19:33:58.467908+00:00", "meta": {"OBJECT_NAME": "1998-067XK", "OBJECT_ID": "1998-067XK", "EPOCH": "2025-12-03T20:33:14.862528", "MEAN_MOTION": 15.63596152, "ECCENTRICITY": 0.00059045, "INCLINATION": 51.628, "RA_OF_ASC_NODE": 182.229, "ARG_OF_PERICENTER": 193.4783, "MEAN_ANOMALY": 166.6055, "EPHEMERIS_TYPE": 0, "CLASSIFICATION_TYPE": "U", "NORAD_CAT_ID": 65731, "ELEMENT_SET_NO": 999, "REV_AT_EPOCH": 1175, "BSTAR": 0.0013142835, "MEAN_MOTION_DOT": 0.00126041, "MEAN_MOTION_DDOT": 0}, "tle": {"line1": "1 65731U 98067XK  25337.85642202  .00126041  00000+0  13143-2 0  9998", "line2": "2 65731  51.6280 182.2290 0005904 193.4783 166.6055 15.63596152 11759"}}, "geometry": {"type": "Point", "coordinates": [178.17092523646906, 1.0022057052275082]}}, {"type": "Feature", "properties": {"norad_id": 65732, "name": "RSP-03", "group": "stations", "lat": -50.46746381789792, "lon": 70.61012130829212, "alt_km": 372.1423401387601, "timestamp": "2025-12-04T19:33:58.467917+00:00", "meta": {"OBJECT_NAME": "RSP-03", "OBJECT_ID": "1998-067XL", "EPOCH": "2025-12-03T22:33:08.047872", "MEAN_MOTION": 15.65891812, "ECCENTRICITY": 0.00067144, "INCLINATION": 51.6257, "RA_OF_ASC_NODE": 181.2782, "ARG_OF_PERICENTER": 196.8829, "MEAN_ANOMALY": 163.1944, "EPHEMERIS_TYPE": 0, "CLASSIFICATION_TYPE": "U", "NORAD_CAT_ID": 65732, "ELEMENT_SET_NO": 999, "REV_AT_EPOCH": 1178, "BSTAR": 0.0015088651, "MEAN_MOTION_DOT": 0.00159324, "MEAN_MOTION_DDOT": 0}, "tle": {"line1": "1 65732U 98067XL  25337.93967648  .00159324  00000+0  15089-2 0  9993", "line2": "2 65732  51.6257 181.2782 0006714 196.8829 163.1944 15.65891812 11782"}}, "geometry": {"type": "Point", "coordinates": [70.61012130829212, -50.46746381789792]}}, {"type": "Feature", "properties": {"norad_id": 65733, "name": "GHS-01", "group": "stations", "lat": 16.56585891785382, "lon": -170.53783404845828, "alt_km": 358.9191763142544, "timestamp": "2025-12-04T19:33:58.467927+00:00", "meta": {"OBJECT_NAME": "GHS-01", "OBJECT_ID": "1998-067XM", "EPOCH": "2025-12-03T22:05:54.332736", "MEAN_MOTION": 15.70494881, "ECCENTRICITY": 0.0007009, "INCLINATION": 51.6271, "RA_OF_ASC_NODE": 180.4028, "ARG_OF_PERICENTER": 220.9221, "MEAN_ANOMALY": 139.1251, "EPHEMERIS_TYPE": 0, "CLASSIFICATION_TYPE": "U", "NORAD_CAT_ID": 65733, "ELEMENT_SET_NO": 999, "REV_AT_EPOCH": 1179, "BSTAR": 0.001848703, "MEAN_MOTION_DOT": 0.00238165, "MEAN_MOTION_DDOT": 0}, "tle": {"line1": "1 65733U 98067XM  25337.92076774  .00238165  00000+0  18487-2 0  9990", "line2": "2 65733  51.6271 180.4028 0007009 220.9221 139.1251 15.70494881 11792"}}, "geometry": {"type": "Point", "coordinates": [-170.53783404845828, 16.56585891785382]}}, {"type": "Feature", "properties": {"norad_id": 65941, "name": "YOTSUBA-KULOVER", "group": "stations", "lat": -45.723158458292474, "lon": 125.41062791797789, "alt_km": 398.2794425656093, "timestamp": "2025-12-04T19:33:58.467936+00:00", "meta": {"OBJECT_NAME": "YOTSUBA-KULOVER", "OBJECT_ID": "1998-067XN", "EPOCH": "2025-12-03T20:45:26.565984", "MEAN_MOTION": 15.57896087, "ECCENTRICITY": 0.00021831, "INCLINATION": 51.628, "RA_OF_ASC_NODE": 184.5321, "ARG_OF_PERICENTER": 175.1135, "MEAN_ANOMALY": 184.9878, "EPHEMERIS_TYPE": 0, "CLASSIFICATION_TYPE": "U", "NORAD_CAT_ID": 65941, "ELEMENT_SET_NO": 999, "REV_AT_EPOCH": 847, "BSTAR": 0.0012114589, "MEAN_MOTION_DOT": 0.00092779, "MEAN_MOTION_DDOT": 0}, "tle": {"line1": "1 65941U 98067XN  25337.86489081  .00092779  00000+0  12115-2 0  9994", "line2": "2 65941  51.6280 184.5321 0002183 175.1135 184.9878 15.57896087  8470"}}, "geometry": {"type": "Point", "coordinates": [125.41062791797789, -45.723158458292474]}}]}